1  9941U 77032A   19220.05655169  .16569444  82387-5  49358-4 0  9998
2  9941  61.4893  56.2641 0475618 279.6545 235.5874 15.58149226309996